{
  "links" : {
    "next" : "https://api.nasa.gov/neo/rest/v1/feed?start_date=2005-10-16&end_date=2005-10-16&detailed=true&api_key=t0TVs3DtDT2H8Oy2Zy8m2eVrNsAVKAexjcZXUckd",
    "prev" : "https://api.nasa.gov/neo/rest/v1/feed?start_date=2005-10-14&end_date=2005-10-14&detailed=true&api_key=t0TVs3DtDT2H8Oy2Zy8m2eVrNsAVKAexjcZXUckd",
    "self" : "https://api.nasa.gov/neo/rest/v1/feed?start_date=2005-10-15&end_date=2005-10-15&detailed=true&api_key=t0TVs3DtDT2H8Oy2Zy8m2eVrNsAVKAexjcZXUckd"
  },
  "element_count" : 10,
  "near_earth_objects" : {
    "2005-10-15" : [ {
      "links" : {
        "self" : "https://api.nasa.gov/neo/rest/v1/neo/3734471?api_key=t0TVs3DtDT2H8Oy2Zy8m2eVrNsAVKAexjcZXUckd"
      },
      "neo_reference_id" : "3734471",
      "name" : "(2015 VG105)",
      "nasa_jpl_url" : "http://ssd.jpl.nasa.gov/sbdb.cgi?sstr=3734471",
      "absolute_magnitude_h" : 24.0,
      "estimated_diameter" : {
        "kilometers" : {
          "estimated_diameter_min" : 0.0421264611,
          "estimated_diameter_max" : 0.0941976306
        },
        "meters" : {
          "estimated_diameter_min" : 42.1264610556,
          "estimated_diameter_max" : 94.1976305719
        },
        "miles" : {
          "estimated_diameter_min" : 0.0261761612,
          "estimated_diameter_max" : 0.0585316759
        },
        "feet" : {
          "estimated_diameter_min" : 138.2101784897,
          "estimated_diameter_max" : 309.0473542854
        }
      },
      "is_potentially_hazardous_asteroid" : false,
      "close_approach_data" : [ {
        "close_approach_date" : "2005-10-15",
        "epoch_date_close_approach" : 1129359600000,
        "relative_velocity" : {
          "kilometers_per_second" : "15.7307967641",
          "kilometers_per_hour" : "56630.8683507031",
          "miles_per_hour" : "35188.2192815799"
        },
        "miss_distance" : {
          "astronomical" : "0.4758271362",
          "lunar" : "185.0967559814",
          "kilometers" : "71182728",
          "miles" : "44230896"
        },
        "orbiting_body" : "Earth"
      } ],
      "orbital_data" : {
        "orbit_id" : "21",
        "orbit_determination_date" : "2017-04-06 08:30:42",
        "orbit_uncertainty" : "7",
        "minimum_orbit_intersection" : ".0436897",
        "jupiter_tisserand_invariant" : "5.031",
        "epoch_osculation" : "2458000.5",
        "eccentricity" : ".1902737435587748",
        "semi_major_axis" : "1.274958480369188",
        "inclination" : "12.24208817084726",
        "ascending_node_longitude" : "50.85095475993387",
        "orbital_period" : "525.8265247765248",
        "perihelion_distance" : "1.032367357427336",
        "perihelion_argument" : "3.005292686690929",
        "aphelion_distance" : "1.51754960331104",
        "perihelion_time" : "2457869.247300925946",
        "mean_anomaly" : "89.86038063930138",
        "mean_motion" : ".6846364400369481",
        "equinox" : "J2000"
      }
    }, {
      "links" : {
        "self" : "https://api.nasa.gov/neo/rest/v1/neo/3742056?api_key=t0TVs3DtDT2H8Oy2Zy8m2eVrNsAVKAexjcZXUckd"
      },
      "neo_reference_id" : "3742056",
      "name" : "(2016 CD31)",
      "nasa_jpl_url" : "http://ssd.jpl.nasa.gov/sbdb.cgi?sstr=3742056",
      "absolute_magnitude_h" : 26.9,
      "estimated_diameter" : {
        "kilometers" : {
          "estimated_diameter_min" : 0.0110803882,
          "estimated_diameter_max" : 0.0247765013
        },
        "meters" : {
          "estimated_diameter_min" : 11.0803882126,
          "estimated_diameter_max" : 24.7765012606
        },
        "miles" : {
          "estimated_diameter_min" : 0.0068850319,
          "estimated_diameter_max" : 0.0153953994
        },
        "feet" : {
          "estimated_diameter_min" : 36.3529808636,
          "estimated_diameter_max" : 81.2877363957
        }
      },
      "is_potentially_hazardous_asteroid" : false,
      "close_approach_data" : [ {
        "close_approach_date" : "2005-10-15",
        "epoch_date_close_approach" : 1129359600000,
        "relative_velocity" : {
          "kilometers_per_second" : "26.6607296803",
          "kilometers_per_hour" : "95978.6268491041",
          "miles_per_hour" : "59637.3862218781"
        },
        "miss_distance" : {
          "astronomical" : "0.3949966807",
          "lunar" : "153.6537017822",
          "kilometers" : "59090660",
          "miles" : "36717236"
        },
        "orbiting_body" : "Earth"
      } ],
      "orbital_data" : {
        "orbit_id" : "8",
        "orbit_determination_date" : "2017-04-06 08:28:36",
        "orbit_uncertainty" : "7",
        "minimum_orbit_intersection" : ".00651007",
        "jupiter_tisserand_invariant" : "5.780",
        "epoch_osculation" : "2458000.5",
        "eccentricity" : ".4542915430425694",
        "semi_major_axis" : "1.044521498428156",
        "inclination" : ".451647491729868",
        "ascending_node_longitude" : "241.176781289648",
        "orbital_period" : "389.9190929019479",
        "perihelion_distance" : ".5700042151660926",
        "perihelion_argument" : "12.07109586095474",
        "aphelion_distance" : "1.51903878169022",
        "perihelion_time" : "2457882.733026734972",
        "mean_anomaly" : "108.7305319159411",
        "mean_motion" : ".9232684589018789",
        "equinox" : "J2000"
      }
    }, {
      "links" : {
        "self" : "https://api.nasa.gov/neo/rest/v1/neo/3767010?api_key=t0TVs3DtDT2H8Oy2Zy8m2eVrNsAVKAexjcZXUckd"
      },
      "neo_reference_id" : "3767010",
      "name" : "(2017 BO6)",
      "nasa_jpl_url" : "http://ssd.jpl.nasa.gov/sbdb.cgi?sstr=3767010",
      "absolute_magnitude_h" : 26.1,
      "estimated_diameter" : {
        "kilometers" : {
          "estimated_diameter_min" : 0.0160160338,
          "estimated_diameter_max" : 0.0358129403
        },
        "meters" : {
          "estimated_diameter_min" : 16.0160337979,
          "estimated_diameter_max" : 35.8129403019
        },
        "miles" : {
          "estimated_diameter_min" : 0.0099518989,
          "estimated_diameter_max" : 0.0222531225
        },
        "feet" : {
          "estimated_diameter_min" : 52.5460443254,
          "estimated_diameter_max" : 117.4965270602
        }
      },
      "is_potentially_hazardous_asteroid" : false,
      "close_approach_data" : [ {
        "close_approach_date" : "2005-10-15",
        "epoch_date_close_approach" : 1129359600000,
        "relative_velocity" : {
          "kilometers_per_second" : "11.5088372069",
          "kilometers_per_hour" : "41431.8139449296",
          "miles_per_hour" : "25744.1179481703"
        },
        "miss_distance" : {
          "astronomical" : "0.1037727718",
          "lunar" : "40.3676109314",
          "kilometers" : "15524186",
          "miles" : "9646282"
        },
        "orbiting_body" : "Earth"
      } ],
      "orbital_data" : {
        "orbit_id" : "7",
        "orbit_determination_date" : "2017-04-06 08:20:50",
        "orbit_uncertainty" : "5",
        "minimum_orbit_intersection" : ".0140297",
        "jupiter_tisserand_invariant" : "6.375",
        "epoch_osculation" : "2458000.5",
        "eccentricity" : ".2754065543803019",
        "semi_major_axis" : ".9357896326756303",
        "inclination" : "1.858840859410166",
        "ascending_node_longitude" : "118.3549715119107",
        "orbital_period" : "330.6479017514127",
        "perihelion_distance" : ".6780670343156265",
        "perihelion_argument" : "142.5988573339084",
        "aphelion_distance" : "1.193512231035634",
        "perihelion_time" : "2457879.184823663203",
        "mean_anomaly" : "132.0845021242001",
        "mean_motion" : "1.088771463823335",
        "equinox" : "J2000"
      }
    } ]
  }
}